start=new Date('2023-05-02T00:00:00.000Z').valueOf();
sats=[{"TLE_LINE1":"1 46329U 20062E   23121.91126973  .00009587  00000-0  66152-3 0  9993","PERIOD":"95.592","RA_OF_ASC_NODE":"357.8298","EPHEMERIS_TYPE":"0","INCLINATION":"53.0549","SEMIMAJOR_AXIS":"6925.334","FILE":"3898518","MEAN_MOTION_DOT":"0.00009587","OBJECT_ID":"2020-062E","OBJECT_TYPE":"PAYLOAD","NORAD_CAT_ID":"46329","MEAN_ANOMALY":"261.6493","PERIAPSIS":"546.424","EPOCH":"2023-05-01T21:52:13.704672","APOAPSIS":"547.973","CLASSIFICATION_TYPE":"U","CENTER_NAME":"EARTH","GP_ID":"231049393","ECCENTRICITY":"0.00011180","REF_FRAME":"TEME","MEAN_MOTION":"15.06404875","MEAN_MOTION_DDOT":"0.0000000000000","COUNTRY_CODE":"US","REV_AT_EPOCH":"14741","ARG_OF_PERICENTER":"98.4623","DECAY_DATE":null,"RCS_SIZE":"LARGE","BSTAR":"0.00066152000000","TLE_LINE2":"2 46329  53.0549 357.8298 0001118  98.4623 261.6493 15.06404875147415","ELEMENT_SET_NO":"999","TIME_SYSTEM":"UTC","LAUNCH_DATE":"2020-09-03","SITE":"AFETR","MEAN_ELEMENT_THEORY":"SGP4","OBJECT_NAME":"STARLINK-1695"},{"RA_OF_ASC_NODE":"357.8841","PERIOD":"95.593","TLE_LINE1":"1 46330U 20062F   23121.90021247  .00017134  00000-0  11668-2 0  9990","MEAN_MOTION_DOT":"0.00017134","FILE":"3898518","SEMIMAJOR_AXIS":"6925.391","OBJECT_ID":"2020-062F","INCLINATION":"53.0551","EPHEMERIS_TYPE":"0","APOAPSIS":"548.074","EPOCH":"2023-05-01T21:36:18.357408","NORAD_CAT_ID":"46330","OBJECT_TYPE":"PAYLOAD","MEAN_ANOMALY":"284.9090","PERIAPSIS":"546.438","GP_ID":"231050143","ECCENTRICITY":"0.00011810","CENTER_NAME":"EARTH","CLASSIFICATION_TYPE":"U","COUNTRY_CODE":"US","MEAN_MOTION_DDOT":"0.0000000000000","REF_FRAME":"TEME","MEAN_MOTION":"15.06386118","RCS_SIZE":"LARGE","DECAY_DATE":null,"BSTAR":"0.00116680000000","ARG_OF_PERICENTER":"75.2030","REV_AT_EPOCH":"14742","LAUNCH_DATE":"2020-09-03","SITE":"AFETR","TIME_SYSTEM":"UTC","ELEMENT_SET_NO":"999","TLE_LINE2":"2 46330  53.0551 357.8841 0001181  75.2030 284.9090 15.06386118147420","MEAN_ELEMENT_THEORY":"SGP4","OBJECT_NAME":"STARLINK-1710"},{"FILE":"3898330","SEMIMAJOR_AXIS":"6925.405","OBJECT_ID":"2020-062G","MEAN_MOTION_DOT":"0.00012547","INCLINATION":"53.0550","EPHEMERIS_TYPE":"0","RA_OF_ASC_NODE":"18.0259","PERIOD":"95.593","TLE_LINE1":"1 46331U 20062G   23121.86887790  .00012547  00000-0  86013-3 0  9999","ECCENTRICITY":"0.00010460","GP_ID":"231026160","CENTER_NAME":"EARTH","CLASSIFICATION_TYPE":"U","APOAPSIS":"547.994","EPOCH":"2023-05-01T20:51:11.050560","PERIAPSIS":"546.545","OBJECT_TYPE":"PAYLOAD","NORAD_CAT_ID":"46331","MEAN_ANOMALY":"285.4549","ARG_OF_PERICENTER":"74.6556","DECAY_DATE":null,"RCS_SIZE":"LARGE","BSTAR":"0.00086013000000","REV_AT_EPOCH":"14731","COUNTRY_CODE":"US","MEAN_MOTION_DDOT":"0.0000000000000","MEAN_MOTION":"15.06381684","REF_FRAME":"TEME","OBJECT_NAME":"STARLINK-1719","MEAN_ELEMENT_THEORY":"SGP4","SITE":"AFETR","LAUNCH_DATE":"2020-09-03","TIME_SYSTEM":"UTC","ELEMENT_SET_NO":"999","TLE_LINE2":"2 46331  53.0550  18.0259 0001046  74.6556 285.4549 15.06381684147311"},{"MEAN_MOTION_DOT":"0.00029120","FILE":"3898331","SEMIMAJOR_AXIS":"6897.856","OBJECT_ID":"2020-062H","INCLINATION":"53.0562","EPHEMERIS_TYPE":"0","RA_OF_ASC_NODE":"14.4236","PERIOD":"95.023","TLE_LINE1":"1 46332U 20062H   23121.86841896  .00029120  00000-0  15330-2 0  9995","GP_ID":"231026478","ECCENTRICITY":"0.00038010","CENTER_NAME":"EARTH","CLASSIFICATION_TYPE":"U","APOAPSIS":"522.342","EPOCH":"2023-05-01T20:50:31.398144","OBJECT_TYPE":"PAYLOAD","NORAD_CAT_ID":"46332","MEAN_ANOMALY":"278.0853","PERIAPSIS":"517.099","DECAY_DATE":null,"BSTAR":"0.00153300000000","RCS_SIZE":"LARGE","ARG_OF_PERICENTER":"82.0572","REV_AT_EPOCH":"14736","COUNTRY_CODE":"US","MEAN_MOTION_DDOT":"0.0000000000000","REF_FRAME":"TEME","MEAN_MOTION":"15.15415109","MEAN_ELEMENT_THEORY":"SGP4","OBJECT_NAME":"STARLINK-1721","LAUNCH_DATE":"2020-09-03","SITE":"AFETR","TIME_SYSTEM":"UTC","ELEMENT_SET_NO":"999","TLE_LINE2":"2 46332  53.0562  14.4236 0003801  82.0572 278.0853 15.15415109147363"},{"TLE_LINE2":"2 46333  53.0555  17.9071 0001742  68.4943 291.6231 15.06399325147310","ELEMENT_SET_NO":"999","TIME_SYSTEM":"UTC","LAUNCH_DATE":"2020-09-03","SITE":"AFETR","OBJECT_NAME":"STARLINK-1723","MEAN_ELEMENT_THEORY":"SGP4","MEAN_MOTION":"15.06399325","REF_FRAME":"TEME","MEAN_MOTION_DDOT":"0.0000000000000","COUNTRY_CODE":"US","REV_AT_EPOCH":"14731","ARG_OF_PERICENTER":"68.4943","DECAY_DATE":null,"RCS_SIZE":"LARGE","BSTAR":"0.00159320000000","PERIAPSIS":"546.009","OBJECT_TYPE":"PAYLOAD","NORAD_CAT_ID":"46333","MEAN_ANOMALY":"291.6231","EPOCH":"2023-05-01T21:28:20.714016","APOAPSIS":"548.422","CLASSIFICATION_TYPE":"U","CENTER_NAME":"EARTH","ECCENTRICITY":"0.00017420","GP_ID":"231026097","TLE_LINE1":"1 46333U 20062J   23121.89468419  .00023528  00000-0  15932-2 0  9999","PERIOD":"95.592","RA_OF_ASC_NODE":"17.9071","EPHEMERIS_TYPE":"0","INCLINATION":"53.0555","SEMIMAJOR_AXIS":"6925.351","FILE":"3898324","OBJECT_ID":"2020-062J","MEAN_MOTION_DOT":"0.00023528"},{"RCS_SIZE":"LARGE","DECAY_DATE":null,"BSTAR":"0.00030710000000","ARG_OF_PERICENTER":"104.6314","REV_AT_EPOCH":"14741","MEAN_MOTION_DDOT":"0.0000000000000","COUNTRY_CODE":"US","REF_FRAME":"TEME","MEAN_MOTION":"15.06394115","MEAN_ELEMENT_THEORY":"SGP4","OBJECT_NAME":"STARLINK-1725","TIME_SYSTEM":"UTC","LAUNCH_DATE":"2020-09-03","SITE":"AFETR","TLE_LINE2":"2 46334  53.0550 358.1773 0001273 104.6314 255.4817 15.06394115147410","ELEMENT_SET_NO":"999","INCLINATION":"53.0550","FILE":"3898518","SEMIMAJOR_AXIS":"6925.367","OBJECT_ID":"2020-062K","MEAN_MOTION_DOT":"0.00004295","EPHEMERIS_TYPE":"0","PERIOD":"95.593","RA_OF_ASC_NODE":"358.1773","TLE_LINE1":"1 46334U 20062K   23121.89656291  .00004295  00000-0  30710-3 0  9999","CENTER_NAME":"EARTH","GP_ID":"231049643","ECCENTRICITY":"0.00012730","CLASSIFICATION_TYPE":"U","EPOCH":"2023-05-01T21:31:03.035424","APOAPSIS":"548.113","NORAD_CAT_ID":"46334","OBJECT_TYPE":"PAYLOAD","MEAN_ANOMALY":"255.4817","PERIAPSIS":"546.350"},{"REF_FRAME":"TEME","MEAN_MOTION":"15.06396023","COUNTRY_CODE":"US","MEAN_MOTION_DDOT":"0.0000000000000","REV_AT_EPOCH":"14714","BSTAR":"0.00117300000000","DECAY_DATE":null,"RCS_SIZE":"LARGE","ARG_OF_PERICENTER":"70.2565","ELEMENT_SET_NO":"999","TLE_LINE2":"2 46335  53.0556  17.7734 0001110  70.2565 289.8543 15.06396023147145","SITE":"AFETR","LAUNCH_DATE":"2020-09-03","TIME_SYSTEM":"UTC","MEAN_ELEMENT_THEORY":"SGP4","OBJECT_NAME":"STARLINK-1727","TLE_LINE1":"1 46335U 20062L   23121.92416978  .00017231  00000-0  11730-2 0  9994","RA_OF_ASC_NODE":"17.7734","PERIOD":"95.592","EPHEMERIS_TYPE":"0","FILE":"3898518","OBJECT_ID":"2020-062L","SEMIMAJOR_AXIS":"6925.361","MEAN_MOTION_DOT":"0.00017231","INCLINATION":"53.0556","NORAD_CAT_ID":"46335","OBJECT_TYPE":"PAYLOAD","MEAN_ANOMALY":"289.8543","PERIAPSIS":"546.457","APOAPSIS":"547.994","EPOCH":"2023-05-01T22:10:48.268992","CLASSIFICATION_TYPE":"U","GP_ID":"231050895","ECCENTRICITY":"0.00011100","CENTER_NAME":"EARTH"},{"PERIOD":"95.592","RA_OF_ASC_NODE":"357.8170","TLE_LINE1":"1 46336U 20062M   23121.91495563  .00009697  00000-0  66897-3 0  9993","INCLINATION":"53.0551","SEMIMAJOR_AXIS":"6925.341","FILE":"3898518","MEAN_MOTION_DOT":"0.00009697","OBJECT_ID":"2020-062M","EPHEMERIS_TYPE":"0","EPOCH":"2023-05-01T21:57:32.166432","APOAPSIS":"547.912","OBJECT_TYPE":"PAYLOAD","MEAN_ANOMALY":"265.7907","NORAD_CAT_ID":"46336","PERIAPSIS":"546.500","CENTER_NAME":"EARTH","GP_ID":"231050636","ECCENTRICITY":"0.00010190","CLASSIFICATION_TYPE":"U","MEAN_MOTION_DDOT":"0.0000000000000","COUNTRY_CODE":"US","REF_FRAME":"TEME","MEAN_MOTION":"15.06402509","ARG_OF_PERICENTER":"94.3199","DECAY_DATE":null,"RCS_SIZE":"LARGE","BSTAR":"0.00066897000000","REV_AT_EPOCH":"14741","TIME_SYSTEM":"UTC","LAUNCH_DATE":"2020-09-03","SITE":"AFETR","TLE_LINE2":"2 46336  53.0551 357.8170 0001019  94.3199 265.7907 15.06402509147415","ELEMENT_SET_NO":"999","MEAN_ELEMENT_THEORY":"SGP4","OBJECT_NAME":"STARLINK-1738"},{"RA_OF_ASC_NODE":"357.7438","PERIOD":"95.593","TLE_LINE1":"1 46337U 20062N   23121.92970139  .00012853  00000-0  88047-3 0  9991","OBJECT_ID":"2020-062N","FILE":"3898518","SEMIMAJOR_AXIS":"6925.388","MEAN_MOTION_DOT":"0.00012853","INCLINATION":"53.0556","EPHEMERIS_TYPE":"0","APOAPSIS":"548.116","EPOCH":"2023-05-01T22:18:46.200096","MEAN_ANOMALY":"260.2470","OBJECT_TYPE":"PAYLOAD","NORAD_CAT_ID":"46337","PERIAPSIS":"546.389","GP_ID":"231049394","ECCENTRICITY":"0.00012470","CENTER_NAME":"EARTH","CLASSIFICATION_TYPE":"U","COUNTRY_CODE":"US","MEAN_MOTION_DDOT":"0.0000000000000","REF_FRAME":"TEME","MEAN_MOTION":"15.06387287","DECAY_DATE":null,"ARG_OF_PERICENTER":"99.8660","RCS_SIZE":"LARGE","BSTAR":"0.00088047000000","REV_AT_EPOCH":"14742","LAUNCH_DATE":"2020-09-03","SITE":"AFETR","TIME_SYSTEM":"UTC","ELEMENT_SET_NO":"999","TLE_LINE2":"2 46337  53.0556 357.7438 0001247  99.8660 260.2470 15.06387287147424","MEAN_ELEMENT_THEORY":"SGP4","OBJECT_NAME":"STARLINK-1750"},{"SITE":"AFETR","LAUNCH_DATE":"2020-09-03","TIME_SYSTEM":"UTC","ELEMENT_SET_NO":"999","TLE_LINE2":"2 46338  53.0556  17.8227 0001375 108.5783 251.5356 15.06391059147137","OBJECT_NAME":"STARLINK-1752","MEAN_ELEMENT_THEORY":"SGP4","COUNTRY_CODE":"US","MEAN_MOTION_DDOT":"0.0000000000000","MEAN_MOTION":"15.06391059","REF_FRAME":"TEME","DECAY_DATE":null,"ARG_OF_PERICENTER":"108.5783","RCS_SIZE":"LARGE","BSTAR":"0.00145280000000","REV_AT_EPOCH":"14713","APOAPSIS":"548.193","EPOCH":"2023-05-01T21:54:53.202528","PERIAPSIS":"546.289","MEAN_ANOMALY":"251.5356","OBJECT_TYPE":"PAYLOAD","NORAD_CAT_ID":"46338","ECCENTRICITY":"0.00013750","GP_ID":"231050144","CENTER_NAME":"EARTH","CLASSIFICATION_TYPE":"U","RA_OF_ASC_NODE":"17.8227","PERIOD":"95.593","TLE_LINE1":"1 46338U 20062P   23121.91311577  .00021419  00000-0  14528-2 0  9996","SEMIMAJOR_AXIS":"6925.376","FILE":"3898518","MEAN_MOTION_DOT":"0.00021419","OBJECT_ID":"2020-062P","INCLINATION":"53.0556","EPHEMERIS_TYPE":"0"}];
